[{"OBJECT_NAME":"JILIN-1 GAOFEN 03D50","OBJECT_ID":"2022-167J","EPOCH":"2026-03-09T22:35:59.947584","MEAN_MOTION":15.32279726,"ECCENTRICITY":0.00065764,"INCLINATION":97.6731,"RA_OF_ASC_NODE":232.9458,"ARG_OF_PERICENTER":101.1473,"MEAN_ANOMALY":259.0507,"EPHEMERIS_TYPE":0,"CLASSIFICATION_TYPE":"U","NORAD_CAT_ID":54690,"ELEMENT_SET_NO":999,"REV_AT_EPOCH":18014,"BSTAR":0.00049467973,"MEAN_MOTION_DOT":0.00015359,"MEAN_MOTION_DDOT":0},{"OBJECT_NAME":"STARLINK-35845","OBJECT_ID":"2025-254U","EPOCH":"2026-03-09T10:03:14.719104","MEAN_MOTION":15.30210065,"ECCENTRICITY":0.00015395,"INCLINATION":53.1574,"RA_OF_ASC_NODE":233.748,"ARG_OF_PERICENTER":86.413,"MEAN_ANOMALY":273.7047,"EPHEMERIS_TYPE":0,"CLASSIFICATION_TYPE":"U","NORAD_CAT_ID":66366,"ELEMENT_SET_NO":999,"REV_AT_EPOCH":1893,"BSTAR":0.00082833184,"MEAN_MOTION_DOT":0.00024261,"MEAN_MOTION_DDOT":0}]
